CZ-10B DEB              
1 69973U 26158B   26200.54645206  .00000196  00000+0  15132-3 0  9998
2 69973  49.9838 262.0705 0005828 325.2209  34.8323 14.24890871  1328
CZ-10B R/B              
1 69974U 26158C   26200.56782708  .00000015  00000+0  36852-4 0  9993
2 69974  49.9629 259.3206 0197986 217.3518 141.3508 14.64300283  1363
STARLINK-38024          
1 69975U 26159A   26200.83335647 -.00035942  00000+0 -18754-3 0  9990
2 69975  97.2852  39.7697 0001646  98.3777 337.1518 15.80830033  2595
STARLINK-37993          
1 69976U 26159B   26200.83335647 -.00226788  00000+0 -12075-2 0  9990
2 69976  97.2851  39.7710 0001415  96.3288 343.4147 15.80936475  2595
STARLINK-37995          
1 69977U 26159C   26200.83335647 -.00732233  00000+0 -40613-2 0  9997
2 69977  97.2851  39.7733 0001201  70.3645  13.4661 15.81300939  2599
STARLINK-38057          
1 69978U 26159D   26200.83335647 -.01123886  00000+0 -62890-2 0  9998
2 69978  97.2852  39.7745 0001392  81.2165   6.6308 15.81666020  2591
STARLINK-38063          
1 69979U 26159E   26200.83335647 -.01479454  00000+0 -82392-2 0  9993
2 69979  97.2854  39.7765 0001593  80.8361  10.9574 15.82057317  2599
STARLINK-38093          
1 69980U 26159F   26200.83335647 -.01745418  00000+0 -97707-2 0  9997
2 69980  97.2855  39.7791 0001796  84.0349  11.6474 15.82457924  2593
STARLINK-38050          
1 69981U 26159G   26200.83335647 -.01592568  00000+0 -87205-2 0  9996
2 69981  97.2854  39.7798 0001689  66.6985  32.8288 15.82629723  2599
STARLINK-38065          
1 69982U 26159H   26200.83335647 -.01526543  00000+0 -82185-2 0  9999
2 69982  97.2851  39.7824 0001512  76.5623  26.7582 15.82866621  2590
STARLINK-38077          
1 69983U 26159J   26200.83335647 -.01502498  00000+0 -79962-2 0  9992
2 69983  97.2855  39.7829 0001460  68.5863  38.4822 15.83066735  2595
STARLINK-38068          
1 69984U 26159K   26200.83335647 -.01622441  00000+0 -85926-2 0  9991
2 69984  97.2850  39.7831 0001628  73.9441  36.7157 15.83392208  2591
STARLINK-38089          
1 69985U 26159L   26200.83335647 -.01609646  00000+0 -84276-2 0  9991
2 69985  97.2852  39.7851 0001570  77.1759  37.1415 15.83609948  2594
STARLINK-38073          
1 69986U 26159M   26200.83335647 -.01603411  00000+0 -82969-2 0  9993
2 69986  97.2855  39.7864 0001698  75.9987  41.8752 15.83843150  2593
STARLINK-38099          
1 69987U 26159N   26200.83335647 -.01588036  00000+0 -81152-2 0  9992
2 69987  97.2854  39.7875 0001568  70.5765  50.7674 15.84077937  2591
STARLINK-38064          
1 69988U 26159P   26200.83335647 -.01564762  00000+0 -78162-2 0  9990
2 69988  97.2856  39.7902 0001466  74.6417  53.6022 15.84511216  2593
STARLINK-38080          
1 69989U 26159Q   26200.83335647 -.01579767  00000+0 -79840-2 0  9996
2 69989  97.2854  39.7890 0001517  73.9762  50.8540 15.84294561  2595
STARLINK-38070          
1 69990U 26159R   26200.83335647 -.01556447  00000+0 -76935-2 0  9990
2 69990  97.2856  39.7918 0001494  73.9671  57.6970 15.84714000  2590
STARLINK-38042          
1 69991U 26159S   26200.83335647 -.01547352  00000+0 -75573-2 0  9993
2 69991  97.2856  39.7931 0001658  77.3982  57.4994 15.84944537  2595
STARLINK-38071          
1 69992U 26159T   26200.83335647 -.01529501  00000+0 -73824-2 0  9997
2 69992  97.2857  39.7945 0001631  73.6618  64.4612 15.85157023  2590
STARLINK-38082          
1 69993U 26159U   26200.83335647 -.01521633  00000+0 -72656-2 0  9998
2 69993  97.2859  39.7959 0001552  73.3719  67.9503 15.85367036  2593
STARLINK-38090          
1 69994U 26159V   26200.83335647 -.01508019  00000+0 -71230-2 0  9999
2 69994  97.2859  39.7974 0001547  73.7716  70.7406 15.85566139  2595
STARLINK-38084          
1 69995U 26159W   26200.83335647 -.01507652  00000+0 -70557-2 0  9993
2 69995  97.2860  39.7988 0001553  75.0483  72.7022 15.85755796  2591
STARLINK-38085          
1 69996U 26159X   26200.83335647 -.01465468  00000+0 -69223-2 0  9990
2 69996  97.2861  39.8002 0001568  73.9287  76.8628 15.85958894  2597
STARLINK-38091          
1 69997U 26159Y   26200.83335647 -.01454912  00000+0 -68047-2 0  9996
2 69997  97.2863  39.8014 0001532  75.1952  78.7514 15.86138910  2592
STARLINK-38086          
1 69998U 26159Z   26200.83335647 -.01452798  00000+0 -67298-2 0  9994
2 69998  97.2863  39.8028 0001533  75.2635  81.7314 15.86330547  2590
