OBJECT_NAME,OBJECT_ID,EPOCH,MEAN_MOTION,ECCENTRICITY,INCLINATION,RA_OF_ASC_NODE,ARG_OF_PERICENTER,MEAN_ANOMALY,EPHEMERIS_TYPE,CLASSIFICATION_TYPE,NORAD_CAT_ID,ELEMENT_SET_NO,REV_AT_EPOCH,BSTAR,MEAN_MOTION_DOT,MEAN_MOTION_DDOT
CZ-10B DEB,2026-158B,2026-07-19T13:06:53.457984,14.24890871,.00058281,49.9838,262.0705,325.2209,34.8323,0,U,69973,999,132,.15132065E-3,.196E-5,0
CZ-10B R/B,2026-158C,2026-07-19T13:37:40.259712,14.64300283,.0197986,49.9629,259.3206,217.3518,141.3508,0,U,69974,999,136,.36852E-4,.15E-6,0
STARLINK-38024,2026-159A,2026-07-19T20:00:01.999008,15.80830033,.0001646,97.2852,39.7697,98.3777,337.1518,0,U,69975,999,259,-.18754E-3,-.35942E-3,0
STARLINK-37993,2026-159B,2026-07-19T20:00:01.999008,15.80936475,.0001415,97.2851,39.7710,96.3288,343.4147,0,U,69976,999,259,-.12075E-2,-.226788E-2,0
STARLINK-37995,2026-159C,2026-07-19T20:00:01.999008,15.81300939,.0001201,97.2851,39.7733,70.3645,13.4661,0,U,69977,999,259,-.40613E-2,-.732233E-2,0
STARLINK-38057,2026-159D,2026-07-19T20:00:01.999008,15.81666020,.0001392,97.2852,39.7745,81.2165,6.6308,0,U,69978,999,259,-.6289E-2,-.1123886E-1,0
STARLINK-38063,2026-159E,2026-07-19T20:00:01.999008,15.82057317,.0001593,97.2854,39.7765,80.8361,10.9574,0,U,69979,999,259,-.82392E-2,-.1479454E-1,0
STARLINK-38093,2026-159F,2026-07-19T20:00:01.999008,15.82457924,.0001796,97.2855,39.7791,84.0349,11.6474,0,U,69980,999,259,-.97707E-2,-.1745418E-1,0
STARLINK-38050,2026-159G,2026-07-19T20:00:01.999008,15.82629723,.0001689,97.2854,39.7798,66.6985,32.8288,0,U,69981,999,259,-.87205E-2,-.1592568E-1,0
STARLINK-38065,2026-159H,2026-07-19T20:00:01.999008,15.82866621,.0001512,97.2851,39.7824,76.5623,26.7582,0,U,69982,999,259,-.82185E-2,-.1526543E-1,0
STARLINK-38077,2026-159J,2026-07-19T20:00:01.999008,15.83066735,.000146,97.2855,39.7829,68.5863,38.4822,0,U,69983,999,259,-.79962E-2,-.1502498E-1,0
STARLINK-38068,2026-159K,2026-07-19T20:00:01.999008,15.83392208,.0001628,97.2850,39.7831,73.9441,36.7157,0,U,69984,999,259,-.85926E-2,-.1622441E-1,0
STARLINK-38089,2026-159L,2026-07-19T20:00:01.999008,15.83609948,.000157,97.2852,39.7851,77.1759,37.1415,0,U,69985,999,259,-.84276E-2,-.1609646E-1,0
STARLINK-38073,2026-159M,2026-07-19T20:00:01.999008,15.83843150,.0001698,97.2855,39.7864,75.9987,41.8752,0,U,69986,999,259,-.82969E-2,-.1603411E-1,0
STARLINK-38099,2026-159N,2026-07-19T20:00:01.999008,15.84077937,.0001568,97.2854,39.7875,70.5765,50.7674,0,U,69987,999,259,-.81152E-2,-.1588036E-1,0
STARLINK-38064,2026-159P,2026-07-19T20:00:01.999008,15.84511216,.0001466,97.2856,39.7902,74.6417,53.6022,0,U,69988,999,259,-.78162E-2,-.1564762E-1,0
STARLINK-38080,2026-159Q,2026-07-19T20:00:01.999008,15.84294561,.0001517,97.2854,39.7890,73.9762,50.8540,0,U,69989,999,259,-.7984E-2,-.1579767E-1,0
STARLINK-38070,2026-159R,2026-07-19T20:00:01.999008,15.84714000,.0001494,97.2856,39.7918,73.9671,57.6970,0,U,69990,999,259,-.76935E-2,-.1556447E-1,0
STARLINK-38042,2026-159S,2026-07-19T20:00:01.999008,15.84944537,.0001658,97.2856,39.7931,77.3982,57.4994,0,U,69991,999,259,-.75573E-2,-.1547352E-1,0
STARLINK-38071,2026-159T,2026-07-19T20:00:01.999008,15.85157023,.0001631,97.2857,39.7945,73.6618,64.4612,0,U,69992,999,259,-.73824E-2,-.1529501E-1,0
STARLINK-38082,2026-159U,2026-07-19T20:00:01.999008,15.85367036,.0001552,97.2859,39.7959,73.3719,67.9503,0,U,69993,999,259,-.72656E-2,-.1521633E-1,0
STARLINK-38090,2026-159V,2026-07-19T20:00:01.999008,15.85566139,.0001547,97.2859,39.7974,73.7716,70.7406,0,U,69994,999,259,-.7123E-2,-.1508019E-1,0
STARLINK-38084,2026-159W,2026-07-19T20:00:01.999008,15.85755796,.0001553,97.2860,39.7988,75.0483,72.7022,0,U,69995,999,259,-.70557E-2,-.1507652E-1,0
STARLINK-38085,2026-159X,2026-07-19T20:00:01.999008,15.85958894,.0001568,97.2861,39.8002,73.9287,76.8628,0,U,69996,999,259,-.69223E-2,-.1465468E-1,0
STARLINK-38091,2026-159Y,2026-07-19T20:00:01.999008,15.86138910,.0001532,97.2863,39.8014,75.1952,78.7514,0,U,69997,999,259,-.68047E-2,-.1454912E-1,0
STARLINK-38086,2026-159Z,2026-07-19T20:00:01.999008,15.86330547,.0001533,97.2863,39.8028,75.2635,81.7314,0,U,69998,999,259,-.67298E-2,-.1452798E-1,0
